start=new Date('2022-09-20T00:00:00.000Z').valueOf();
sats=[{"EPHEMERIS_TYPE":"0","TLE_LINE1":"1 52350U 22045V   22262.92114579  .00000043  00000-0  20810-4 0  9992","EPOCH":"2022-09-19T22:06:26.996256","CENTER_NAME":"EARTH","PERIAPSIS":"538.401","LAUNCH_DATE":"2022-04-29","GP_ID":"213034443","MEAN_MOTION_DDOT":"0.0000000000000","ARG_OF_PERICENTER":"47.2389","ECCENTRICITY":"0.00019330","RA_OF_ASC_NODE":"125.8776","OBJECT_TYPE":"PAYLOAD","SITE":"AFETR","TIME_SYSTEM":"UTC","TLE_LINE2":"2 52350  53.2177 125.8776 0001933  47.2389 312.8766 15.08842308 24544","SEMIMAJOR_AXIS":"6917.873","MEAN_ANOMALY":"312.8766","REF_FRAME":"TEME","MEAN_MOTION_DOT":"0.00000043","OBJECT_ID":"2022-045V","MEAN_MOTION":"15.08842308","PERIOD":"95.437","MEAN_ELEMENT_THEORY":"SGP4","CLASSIFICATION_TYPE":"U","DECAY_DATE":null,"REV_AT_EPOCH":"2454","RCS_SIZE":"LARGE","ELEMENT_SET_NO":"999","OBJECT_NAME":"STARLINK-3754","BSTAR":"0.00002081000000","COUNTRY_CODE":"US","FILE":"3578162","INCLINATION":"53.2177","NORAD_CAT_ID":"52350","APOAPSIS":"541.076"},{"INCLINATION":"53.2181","FILE":"3578133","APOAPSIS":"540.956","NORAD_CAT_ID":"52351","RCS_SIZE":"LARGE","OBJECT_NAME":"STARLINK-3816","ELEMENT_SET_NO":"999","COUNTRY_CODE":"US","BSTAR":"0.00006000800000","MEAN_ELEMENT_THEORY":"SGP4","CLASSIFICATION_TYPE":"U","PERIOD":"95.437","MEAN_MOTION":"15.08842087","REV_AT_EPOCH":"2451","DECAY_DATE":null,"MEAN_MOTION_DOT":"0.00000667","OBJECT_ID":"2022-045W","RA_OF_ASC_NODE":"126.7318","OBJECT_TYPE":"PAYLOAD","ARG_OF_PERICENTER":"62.3759","ECCENTRICITY":"0.00017590","REF_FRAME":"TEME","TLE_LINE2":"2 52351  53.2181 126.7318 0001759  62.3759 297.7412 15.08842087 24517","MEAN_ANOMALY":"297.7412","SEMIMAJOR_AXIS":"6917.874","TIME_SYSTEM":"UTC","SITE":"AFETR","MEAN_MOTION_DDOT":"0.0000000000000","EPOCH":"2022-09-19T17:30:53.246880","GP_ID":"213009489","LAUNCH_DATE":"2022-04-29","PERIAPSIS":"538.522","CENTER_NAME":"EARTH","EPHEMERIS_TYPE":"0","TLE_LINE1":"1 52351U 22045W   22262.72978295  .00000667  00000-0  60008-4 0  9999"},{"RCS_SIZE":"LARGE","ELEMENT_SET_NO":"999","OBJECT_NAME":"STARLINK-3838","COUNTRY_CODE":"US","BSTAR":"0.00004804500000","INCLINATION":"53.2183","FILE":"3578162","APOAPSIS":"541.033","NORAD_CAT_ID":"52352","MEAN_MOTION_DOT":"0.00000477","OBJECT_ID":"2022-045X","MEAN_ELEMENT_THEORY":"SGP4","CLASSIFICATION_TYPE":"U","PERIOD":"95.438","MEAN_MOTION":"15.08836639","REV_AT_EPOCH":"2454","DECAY_DATE":null,"MEAN_MOTION_DDOT":"0.0000000000000","OBJECT_TYPE":"PAYLOAD","RA_OF_ASC_NODE":"125.9252","ARG_OF_PERICENTER":"44.8540","ECCENTRICITY":"0.00018460","REF_FRAME":"TEME","TLE_LINE2":"2 52352  53.2183 125.9252 0001846  44.8540 315.2601 15.08836639 24543","MEAN_ANOMALY":"315.2601","SEMIMAJOR_AXIS":"6917.891","TIME_SYSTEM":"UTC","SITE":"AFETR","EPHEMERIS_TYPE":"0","TLE_LINE1":"1 52352U 22045X   22262.91009908  .00000477  00000-0  48045-4 0  9993","EPOCH":"2022-09-19T21:50:32.560512","GP_ID":"213032941","LAUNCH_DATE":"2022-04-29","PERIAPSIS":"538.479","CENTER_NAME":"EARTH"},{"MEAN_MOTION_DDOT":"0.0000000000000","OBJECT_TYPE":"PAYLOAD","RA_OF_ASC_NODE":"127.0778","ECCENTRICITY":"0.00019620","ARG_OF_PERICENTER":"58.5728","TLE_LINE2":"2 52353  53.2202 127.0778 0001962  58.5728 301.5456 15.08839748 24507","SEMIMAJOR_AXIS":"6917.881","MEAN_ANOMALY":"301.5456","REF_FRAME":"TEME","SITE":"AFETR","TIME_SYSTEM":"UTC","EPHEMERIS_TYPE":"0","TLE_LINE1":"1 52353U 22045Y   22262.65250307 -.00000161  00000-0  79978-5 0  9997","EPOCH":"2022-09-19T15:39:36.265248","PERIAPSIS":"538.389","LAUNCH_DATE":"2022-04-29","GP_ID":"213033692","CENTER_NAME":"EARTH","ELEMENT_SET_NO":"999","RCS_SIZE":"LARGE","OBJECT_NAME":"STARLINK-3807","COUNTRY_CODE":"US","BSTAR":"0.00000799780000","FILE":"3578162","INCLINATION":"53.2202","NORAD_CAT_ID":"52353","APOAPSIS":"541.103","MEAN_MOTION_DOT":"-0.00000161","OBJECT_ID":"2022-045Y","MEAN_ELEMENT_THEORY":"SGP4","CLASSIFICATION_TYPE":"U","MEAN_MOTION":"15.08839748","PERIOD":"95.438","REV_AT_EPOCH":"2450","DECAY_DATE":null},{"EPHEMERIS_TYPE":"0","TLE_LINE1":"1 52354U 22045Z   22262.89906776 -.00000133  00000-0  97803-5 0  9998","EPOCH":"2022-09-19T21:34:39.454464","CENTER_NAME":"EARTH","LAUNCH_DATE":"2022-04-29","GP_ID":"213033943","PERIAPSIS":"538.407","MEAN_MOTION_DDOT":"0.0000000000000","ARG_OF_PERICENTER":"42.6955","ECCENTRICITY":"0.00019560","OBJECT_TYPE":"PAYLOAD","RA_OF_ASC_NODE":"125.9603","TIME_SYSTEM":"UTC","SITE":"AFETR","REF_FRAME":"TEME","MEAN_ANOMALY":"317.4189","TLE_LINE2":"2 52354  53.2185 125.9603 0001956  42.6955 317.4189 15.08835086 24545","SEMIMAJOR_AXIS":"6917.895","MEAN_MOTION_DOT":"-0.00000133","OBJECT_ID":"2022-045Z","PERIOD":"95.438","MEAN_MOTION":"15.08835086","CLASSIFICATION_TYPE":"U","MEAN_ELEMENT_THEORY":"SGP4","DECAY_DATE":null,"REV_AT_EPOCH":"2454","OBJECT_NAME":"STARLINK-3876","RCS_SIZE":"LARGE","ELEMENT_SET_NO":"999","BSTAR":"0.00000978030000","COUNTRY_CODE":"US","INCLINATION":"53.2185","FILE":"3578162","APOAPSIS":"541.114","NORAD_CAT_ID":"52354"},{"PERIOD":"95.437","MEAN_MOTION":"15.08841763","CLASSIFICATION_TYPE":"U","MEAN_ELEMENT_THEORY":"SGP4","DECAY_DATE":null,"REV_AT_EPOCH":"2454","MEAN_MOTION_DOT":"0.00001291","OBJECT_ID":"2022-045AA","INCLINATION":"53.2206","FILE":"3578162","APOAPSIS":"541.018","NORAD_CAT_ID":"52355","ELEMENT_SET_NO":"999","RCS_SIZE":"LARGE","OBJECT_NAME":"STARLINK-3877","BSTAR":"0.00009921700000","COUNTRY_CODE":"US","EPOCH":"2022-09-19T21:55:50.743200","CENTER_NAME":"EARTH","LAUNCH_DATE":"2022-04-29","GP_ID":"213034694","PERIAPSIS":"538.462","EPHEMERIS_TYPE":"0","TLE_LINE1":"1 52355U 22045AA  22262.91378175  .00001291  00000-0  99217-4 0  9993","ARG_OF_PERICENTER":"67.4116","ECCENTRICITY":"0.00018470","RA_OF_ASC_NODE":"125.9069","OBJECT_TYPE":"PAYLOAD","TIME_SYSTEM":"UTC","SITE":"AFETR","REF_FRAME":"TEME","TLE_LINE2":"2 52355  53.2206 125.9069 0001847  67.4116 292.7071 15.08841763 24543","MEAN_ANOMALY":"292.7071","SEMIMAJOR_AXIS":"6917.875","MEAN_MOTION_DDOT":"0.0000000000000"},{"COUNTRY_CODE":"US","BSTAR":"0.00001943100000","RCS_SIZE":"LARGE","ELEMENT_SET_NO":"999","OBJECT_NAME":"STARLINK-3801","APOAPSIS":"540.867","NORAD_CAT_ID":"52356","INCLINATION":"53.2192","FILE":"3578162","OBJECT_ID":"2022-045AB","MEAN_MOTION_DOT":"0.00000021","REV_AT_EPOCH":"2451","DECAY_DATE":null,"CLASSIFICATION_TYPE":"U","MEAN_ELEMENT_THEORY":"SGP4","PERIOD":"95.437","MEAN_MOTION":"15.08843827","MEAN_MOTION_DDOT":"0.0000000000000","REF_FRAME":"TEME","TLE_LINE2":"2 52356  53.2192 126.8395 0001638  62.1535 297.9623 15.08843827 24515","MEAN_ANOMALY":"297.9623","SEMIMAJOR_AXIS":"6917.869","TIME_SYSTEM":"UTC","SITE":"AFETR","OBJECT_TYPE":"PAYLOAD","RA_OF_ASC_NODE":"126.8395","ECCENTRICITY":"0.00016380","ARG_OF_PERICENTER":"62.1535","TLE_LINE1":"1 52356U 22045AB  22262.70129886  .00000021  00000-0  19431-4 0  9994","EPHEMERIS_TYPE":"0","LAUNCH_DATE":"2022-04-29","GP_ID":"213033442","PERIAPSIS":"538.601","CENTER_NAME":"EARTH","EPOCH":"2022-09-19T16:49:52.221504"},{"FILE":"3578162","INCLINATION":"53.2207","NORAD_CAT_ID":"52357","APOAPSIS":"541.093","RCS_SIZE":"LARGE","OBJECT_NAME":"STARLINK-3821","ELEMENT_SET_NO":"999","COUNTRY_CODE":"US","BSTAR":"0.00013669000000","CLASSIFICATION_TYPE":"U","MEAN_ELEMENT_THEORY":"SGP4","MEAN_MOTION":"15.08844829","PERIOD":"95.437","REV_AT_EPOCH":"2450","DECAY_DATE":null,"MEAN_MOTION_DOT":"0.00001888","OBJECT_ID":"2022-045AC","RA_OF_ASC_NODE":"127.1258","OBJECT_TYPE":"PAYLOAD","ARG_OF_PERICENTER":"54.7848","ECCENTRICITY":"0.00019690","TLE_LINE2":"2 52357  53.2207 127.1258 0001969  54.7848 305.3328 15.08844829 24504","MEAN_ANOMALY":"305.3328","SEMIMAJOR_AXIS":"6917.866","REF_FRAME":"TEME","SITE":"AFETR","TIME_SYSTEM":"UTC","MEAN_MOTION_DDOT":"0.0000000000000","EPOCH":"2022-09-19T15:23:42.519840","PERIAPSIS":"538.369","GP_ID":"213033192","LAUNCH_DATE":"2022-04-29","CENTER_NAME":"EARTH","EPHEMERIS_TYPE":"0","TLE_LINE1":"1 52357U 22045AC  22262.64146435  .00001888  00000-0  13669-3 0  9995"},{"EPHEMERIS_TYPE":"0","TLE_LINE1":"1 52358U 22045AD  22262.88802401  .00002483  00000-0  17401-3 0  9994","EPOCH":"2022-09-19T21:18:45.274464","PERIAPSIS":"538.369","LAUNCH_DATE":"2022-04-29","GP_ID":"213034444","CENTER_NAME":"EARTH","MEAN_MOTION_DDOT":"0.0000000000000","OBJECT_TYPE":"PAYLOAD","RA_OF_ASC_NODE":"126.0027","ECCENTRICITY":"0.00019490","ARG_OF_PERICENTER":"46.9089","TLE_LINE2":"2 52358  53.2198 126.0027 0001949  46.9089 313.2066 15.08849234 24540","MEAN_ANOMALY":"313.2066","SEMIMAJOR_AXIS":"6917.852","REF_FRAME":"TEME","SITE":"AFETR","TIME_SYSTEM":"UTC","MEAN_MOTION_DOT":"0.00002483","OBJECT_ID":"2022-045AD","MEAN_ELEMENT_THEORY":"SGP4","CLASSIFICATION_TYPE":"U","MEAN_MOTION":"15.08849234","PERIOD":"95.437","REV_AT_EPOCH":"2454","DECAY_DATE":null,"RCS_SIZE":"LARGE","OBJECT_NAME":"STARLINK-3837","ELEMENT_SET_NO":"999","COUNTRY_CODE":"US","BSTAR":"0.00017401000000","FILE":"3578162","INCLINATION":"53.2198","NORAD_CAT_ID":"52358","APOAPSIS":"541.065"},{"NORAD_CAT_ID":"52359","APOAPSIS":"541.061","FILE":"3578162","INCLINATION":"53.2195","BSTAR":"-0.00008156000000","COUNTRY_CODE":"US","ELEMENT_SET_NO":"999","RCS_SIZE":"LARGE","OBJECT_NAME":"STARLINK-3853","DECAY_DATE":null,"REV_AT_EPOCH":"2452","MEAN_MOTION":"15.08850610","PERIOD":"95.437","MEAN_ELEMENT_THEORY":"SGP4","CLASSIFICATION_TYPE":"U","OBJECT_ID":"2022-045AE","MEAN_MOTION_DOT":"-0.00001586","SITE":"AFETR","TIME_SYSTEM":"UTC","TLE_LINE2":"2 52359  53.2195 126.5445 0001949  44.9919 315.1231 15.08850610 24520","MEAN_ANOMALY":"315.1231","SEMIMAJOR_AXIS":"6917.848","REF_FRAME":"TEME","ECCENTRICITY":"0.00019490","ARG_OF_PERICENTER":"44.9919","RA_OF_ASC_NODE":"126.5445","OBJECT_TYPE":"PAYLOAD","MEAN_MOTION_DDOT":"0.0000000000000","CENTER_NAME":"EARTH","PERIAPSIS":"538.365","LAUNCH_DATE":"2022-04-29","GP_ID":"213034194","EPOCH":"2022-09-19T18:29:11.016960","TLE_LINE1":"1 52359U 22045AE  22262.77026640 -.00001586  00000-0 -81560-4 0  9999","EPHEMERIS_TYPE":"0"}];
